[{"OBJECT_NAME":"STARLINK-5263","OBJECT_ID":"2022-141AN","EPOCH":"2026-03-09T22:19:50.381472","MEAN_MOTION":15.08851171,"ECCENTRICITY":0.00014326,"INCLINATION":53.2179,"RA_OF_ASC_NODE":353.0825,"ARG_OF_PERICENTER":112.1465,"MEAN_ANOMALY":247.9679,"EPHEMERIS_TYPE":0,"CLASSIFICATION_TYPE":"U","NORAD_CAT_ID":54193,"ELEMENT_SET_NO":999,"REV_AT_EPOCH":18603,"BSTAR":0.0005772112,"MEAN_MOTION_DOT":8.913e-5,"MEAN_MOTION_DDOT":0},{"OBJECT_NAME":"OBJECT B","OBJECT_ID":"2025-226B","EPOCH":"2026-03-09T23:02:31.139232","MEAN_MOTION":15.09715314,"ECCENTRICITY":0.00204156,"INCLINATION":97.6443,"RA_OF_ASC_NODE":147.8366,"ARG_OF_PERICENTER":114.3969,"MEAN_ANOMALY":245.9393,"EPHEMERIS_TYPE":0,"CLASSIFICATION_TYPE":"U","NORAD_CAT_ID":65939,"ELEMENT_SET_NO":999,"REV_AT_EPOCH":2260,"BSTAR":0.00038297064,"MEAN_MOTION_DOT":6.14e-5,"MEAN_MOTION_DDOT":0}]
